{"fetched_at":"2026-03-29T16:36:15Z","count":15609,"tles":[{"name":"STARLINK-31596","line1":"1 59336U 24057S   26087.65982864  .00000271  00000+0  19360-4 0  9997","line2":"2 59336  42.9993  79.6510 0000720 269.0393  91.0376 15.27583397112744","category":"Starlink"}]}