{
  "norad_id": 59336,
  "name": "STARLINK-31596",
  "history": [
    {
      "epoch": "2026-03-28T15:50:09.194496Z",
      "apogee_km": 483.53347777905583,
      "perigee_km": 482.54437065782076,
      "latitude_deg": -7.171905953052406e-08,
      "longitude_deg": 16.035596906456036,
      "height_km": 482.8232444040585,
      "semi_major_axis_km": 6861.175924218438,
      "eccentricity": 7.208e-05,
      "inclination_deg": 42.9993,
      "raan_deg": 79.651,
      "arg_perigee_deg": 269.0393,
      "mean_anomaly_deg": 91.0376,
      "mean_motion_rev_day": 15.27583397
    }
  ]
}